{"type": "FeatureCollection", "features": [ {"type": "Feature", "properties": {"norad_id": 40697, "name": "SENTINEL-2A", "group": "resource", "lat": -5.097000896241837, "lon": -124.86881144569517, "alt_km": 792.6297998427808, "timestamp": "2025-12-09T07:41:32.860097+00:00", "meta": {"OBJECT_NAME": "SENTINEL-2A", "OBJECT_ID": "2015-028A", "EPOCH": "2025-12-08T22:26:20.111136", "MEAN_MOTION": 14.30824256, "ECCENTRICITY": 0.0001045, "INCLINATION": 98.5695, "RA_OF_ASC_NODE": 55.5218, "ARG_OF_PERICENTER": 90.1302, "MEAN_ANOMALY": 270.0001, "EPHEMERIS_TYPE": 0, "CLASSIFICATION_TYPE": "U", "NORAD_CAT_ID": 40697, "ELEMENT_SET_NO": 999, "REV_AT_EPOCH": 54652, "BSTAR": 2.4366053e-05, "MEAN_MOTION_DOT": 2e-07, "MEAN_MOTION_DDOT": 0}, "tle": {"line1": "1 40697U 15028A   25342.93495499  .00000020  00000+0  24366-4 0  9996", "line2": "2 40697  98.5695  55.5218 0001045  90.1302 270.0001 14.30824256546528"}}, "geometry": {"type": "Point", "coordinates": [-124.86881144569517, -5.097000896241837]}}, {"type": "Feature", "properties": {"norad_id": 40701, "name": "GAOFEN-8", "group": "resource", "lat": -11.127764291195325, "lon": 162.81778807817207, "alt_km": 462.7473209334148, "timestamp": "2025-12-09T07:41:32.860107+00:00", "meta": {"OBJECT_NAME": "GAOFEN-8", "OBJECT_ID": "2015-030A", "EPOCH": "2025-12-08T23:56:08.423808", "MEAN_MOTION": 15.38349916, "ECCENTRICITY": 0.00114228, "INCLINATION": 97.6908, "RA_OF_ASC_NODE": 160.9559, "ARG_OF_PERICENTER": 150.5086, "MEAN_ANOMALY": 209.6805, "EPHEMERIS_TYPE": 0, "CLASSIFICATION_TYPE": "U", "NORAD_CAT_ID": 40701, "ELEMENT_SET_NO": 999, "REV_AT_EPOCH": 58213, "BSTAR": 0.00033334867, "MEAN_MOTION_DOT": 0.00012547, "MEAN_MOTION_DDOT": 0}, "tle": {"line1": "1 40701U 15030A   25342.99731972  .00012547  00000+0  33335-3 0  9992", "line2": "2 40701  97.6908 160.9559 0011422 150.5086 209.6805 15.38349916582131"}}, "geometry": {"type": "Point", "coordinates": [162.81778807817207, -11.127764291195325]}}, {"type": "Feature", "properties": {"norad_id": 40718, "name": "CARBONITE 1 (CBNT-1)", "group": "resource", "lat": -64.41359135410119, "lon": -31.76538018105572, "alt_km": 621.9859952842717, "timestamp": "2025-12-09T07:41:32.860117+00:00", "meta": {"OBJECT_NAME": "CARBONITE 1 (CBNT-1)", "OBJECT_ID": "2015-032D", "EPOCH": "2025-12-08T22:29:27.352896", "MEAN_MOTION": 14.82720893, "ECCENTRICITY": 0.00141689, "INCLINATION": 97.6403, "RA_OF_ASC_NODE": 164.1488, "ARG_OF_PERICENTER": 193.6902, "MEAN_ANOMALY": 166.393, "EPHEMERIS_TYPE": 0, "CLASSIFICATION_TYPE": "U", "NORAD_CAT_ID": 40718, "ELEMENT_SET_NO": 999, "REV_AT_EPOCH": 56114, "BSTAR": 0.00078722253, "MEAN_MOTION_DOT": 6.318e-05, "MEAN_MOTION_DDOT": 0}, "tle": {"line1": "1 40718U 15032D   25342.93712214  .00006318  00000+0  78722-3 0  9992", "line2": "2 40718  97.6403 164.1488 0014168 193.6902 166.3930 14.82720893561142"}}, "geometry": {"type": "Point", "coordinates": [-31.76538018105572, -64.41359135410119]}}, {"type": "Feature", "properties": {"norad_id": 40878, "name": "YAOGAN-27", "group": "resource", "lat": -11.678586356689566, "lon": 150.98319430129177, "alt_km": 1205.284670926526, "timestamp": "2025-12-09T07:41:32.860127+00:00", "meta": {"OBJECT_NAME": "YAOGAN-27", "OBJECT_ID": "2015-040A", "EPOCH": "2025-12-08T23:25:20.279424", "MEAN_MOTION": 13.16058269, "ECCENTRICITY": 0.00076725, "INCLINATION": 100.1004, "RA_OF_ASC_NODE": 332.7656, "ARG_OF_PERICENTER": 296.0151, "MEAN_ANOMALY": 64.0172, "EPHEMERIS_TYPE": 0, "CLASSIFICATION_TYPE": "U", "NORAD_CAT_ID": 40878, "ELEMENT_SET_NO": 999, "REV_AT_EPOCH": 49264, "BSTAR": -0.00083404829, "MEAN_MOTION_DOT": -3.59e-06, "MEAN_MOTION_DDOT": 0}, "tle": {"line1": "1 40878U 15040A   25342.97592916 -.00000359  00000+0 -83405-3 0  9992", "line2": "2 40878 100.1004 332.7656 0007672 296.0151  64.0172 13.16058269492649"}}, "geometry": {"type": "Point", "coordinates": [150.98319430129177, -11.678586356689566]}}, {"type": "Feature", "properties": {"norad_id": 40894, "name": "GAOFEN-9 01", "group": "resource", "lat": 9.52870649885184, "lon": -156.28276081505862, "alt_km": 634.9727986575108, "timestamp": "2025-12-09T07:41:32.860137+00:00", "meta": {"OBJECT_NAME": "GAOFEN-9 01", "OBJECT_ID": "2015-047A", "EPOCH": "2025-12-08T22:49:45.011424", "MEAN_MOTION": 14.82406472, "ECCENTRICITY": 0.00286619, "INCLINATION": 97.6546, "RA_OF_ASC_NODE": 22.0703, "ARG_OF_PERICENTER": 46.2678, "MEAN_ANOMALY": 314.0902, "EPHEMERIS_TYPE": 0, "CLASSIFICATION_TYPE": "U", "NORAD_CAT_ID": 40894, "ELEMENT_SET_NO": 999, "REV_AT_EPOCH": 55200, "BSTAR": 0.00022734722, "MEAN_MOTION_DOT": 1.783e-05, "MEAN_MOTION_DDOT": 0}, "tle": {"line1": "1 40894U 15047A   25342.95121541  .00001783  00000+0  22735-3 0  9996", "line2": "2 40894  97.6546  22.0703 0028661  46.2678 314.0902 14.82406472552003"}}, "geometry": {"type": "Point", "coordinates": [-156.28276081505862, 9.52870649885184]}}, {"type": "Feature", "properties": {"norad_id": 41026, "name": "YAOGAN-28", "group": "resource", "lat": 13.117820724439046, "lon": -57.08304985105975, "alt_km": 486.930523518623, "timestamp": "2025-12-09T07:41:32.860147+00:00", "meta": {"OBJECT_NAME": "YAOGAN-28", "OBJECT_ID": "2015-064A", "EPOCH": "2025-12-08T23:05:11.661792", "MEAN_MOTION": 15.24251362, "ECCENTRICITY": 0.0012239, "INCLINATION": 97.2808, "RA_OF_ASC_NODE": 120.8613, "ARG_OF_PERICENTER": 138.3617, "MEAN_ANOMALY": 221.8555, "EPHEMERIS_TYPE": 0, "CLASSIFICATION_TYPE": "U", "NORAD_CAT_ID": 41026, "ELEMENT_SET_NO": 999, "REV_AT_EPOCH": 56167, "BSTAR": 0.00040738817, "MEAN_MOTION_DOT": 9.897e-05, "MEAN_MOTION_DDOT": 0}, "tle": {"line1": "1 41026U 15064A   25342.96194053  .00009897  00000+0  40739-3 0  9990", "line2": "2 41026  97.2808 120.8613 0012239 138.3617 221.8555 15.24251362561670"}}, "geometry": {"type": "Point", "coordinates": [-57.08304985105975, 13.117820724439046]}}, {"type": "Feature", "properties": {"norad_id": 41038, "name": "YAOGAN-29", "group": "resource", "lat": 51.25157060207583, "lon": -3.6399505130484062, "alt_km": 615.375020078649, "timestamp": "2025-12-09T07:41:32.860158+00:00", "meta": {"OBJECT_NAME": "YAOGAN-29", "OBJECT_ID": "2015-069A", "EPOCH": "2025-12-08T23:21:41.961312", "MEAN_MOTION": 14.828774, "ECCENTRICITY": 4.231e-05, "INCLINATION": 98.0218, "RA_OF_ASC_NODE": 6.1325, "ARG_OF_PERICENTER": 354.7526, "MEAN_ANOMALY": 5.3682, "EPHEMERIS_TYPE": 0, "CLASSIFICATION_TYPE": "U", "NORAD_CAT_ID": 41038, "ELEMENT_SET_NO": 999, "REV_AT_EPOCH": 54243, "BSTAR": 0.00013760664, "MEAN_MOTION_DOT": 1.061e-05, "MEAN_MOTION_DDOT": 0}, "tle": {"line1": "1 41038U 15069A   25342.97340233  .00001061  00000+0  13761-3 0  9992", "line2": "2 41038  98.0218   6.1325 0000423 354.7526   5.3682 14.82877400542437"}}, "geometry": {"type": "Point", "coordinates": [-3.6399505130484062, 51.25157060207583]}}, {"type": "Feature", "properties": {"norad_id": 41167, "name": "KENT RIDGE 1", "group": "resource", "lat": 13.09439721547909, "lon": -3.9377943136444142, "alt_km": 491.6979685303104, "timestamp": "2025-12-09T07:41:32.860168+00:00", "meta": {"OBJECT_NAME": "KENT RIDGE 1", "OBJECT_ID": "2015-077B", "EPOCH": "2025-12-08T23:18:29.879424", "MEAN_MOTION": 15.21589468, "ECCENTRICITY": 0.00085382, "INCLINATION": 14.979, "RA_OF_ASC_NODE": 239.1062, "ARG_OF_PERICENTER": 77.2496, "MEAN_ANOMALY": 282.878, "EPHEMERIS_TYPE": 0, "CLASSIFICATION_TYPE": "U", "NORAD_CAT_ID": 41167, "ELEMENT_SET_NO": 999, "REV_AT_EPOCH": 55206, "BSTAR": 0.00022039153, "MEAN_MOTION_DOT": 5.884e-05, "MEAN_MOTION_DDOT": 0}, "tle": {"line1": "1 41167U 15077B   25342.97117916  .00005884  00000+0  22039-3 0  9999", "line2": "2 41167  14.9790 239.1062 0008538  77.2496 282.8780 15.21589468552065"}}, "geometry": {"type": "Point", "coordinates": [-3.9377943136444142, 13.09439721547909]}}, {"type": "Feature", "properties": {"norad_id": 41194, "name": "GAOFEN-4", "group": "resource", "lat": -0.11485404076592644, "lon": -60.559173165554895, "alt_km": 35792.06363760639, "timestamp": "2025-12-09T07:41:32.860182+00:00", "meta": {"OBJECT_NAME": "GAOFEN-4", "OBJECT_ID": "2015-083A", "EPOCH": "2025-12-08T22:40:04.403424", "MEAN_MOTION": 1.00270962, "ECCENTRICITY": 0.00036377, "INCLINATION": 0.1606, "RA_OF_ASC_NODE": 80.6783, "ARG_OF_PERICENTER": 106.7607, "MEAN_ANOMALY": 336.2287, "EPHEMERIS_TYPE": 0, "CLASSIFICATION_TYPE": "U", "NORAD_CAT_ID": 41194, "ELEMENT_SET_NO": 999, "REV_AT_EPOCH": 3662, "BSTAR": 0, "MEAN_MOTION_DOT": -3.33e-06, "MEAN_MOTION_DDOT": 0}, "tle": {"line1": "1 41194U 15083A   25342.94449541 -.00000333  00000+0  00000+0 0  9990", "line2": "2 41194   0.1606  80.6783 0003637 106.7607 336.2287  1.00270962 36627"}}, "geometry": {"type": "Point", "coordinates": [-60.559173165554895, -0.11485404076592644]}}, {"type": "Feature", "properties": {"norad_id": 41240, "name": "JASON-3", "group": "resource", "lat": -49.7306396952998, "lon": 133.3516676955419, "alt_km": 1312.3218302231317, "timestamp": "2025-12-09T07:41:32.860193+00:00", "meta": {"OBJECT_NAME": "JASON-3", "OBJECT_ID": "2016-002A", "EPOCH": "2025-12-08T22:39:54.983232", "MEAN_MOTION": 12.87626327, "ECCENTRICITY": 0.00071318, "INCLINATION": 66.0389, "RA_OF_ASC_NODE": 165.8037, "ARG_OF_PERICENTER": 270.5682, "MEAN_ANOMALY": 89.452, "EPHEMERIS_TYPE": 0, "CLASSIFICATION_TYPE": "U", "NORAD_CAT_ID": 41240, "ELEMENT_SET_NO": 999, "REV_AT_EPOCH": 46275, "BSTAR": 4.9074051e-05, "MEAN_MOTION_DOT": -5e-07, "MEAN_MOTION_DDOT": 0}, "tle": {"line1": "1 41240U 16002A   25342.94438638 -.00000050  00000+0  49074-4 0  9994", "line2": "2 41240  66.0389 165.8037 0007131 270.5682  89.4520 12.87626327462753"}}, "geometry": {"type": "Point", "coordinates": [133.3516676955419, -49.7306396952998]}}]}